{"cmaCityDetail":[
  {
    "nameEN":"Anda",
    "areaID":101050503,
    "longitude":125.393,
    "latitude":46.52,
    "nameCN":"安达",
    "nameTW":"安達"
  },
  {
    "nameEN":"Anqing",
    "areaID":101220601,
    "longitude":117.047,
    "latitude":30.498,
    "nameCN":"安庆",
    "nameTW":"安慶"
  },
  {
    "nameEN":"Anshan",
    "areaID":101070301,
    "longitude":122.977,
    "latitude":41.115,
    "nameCN":"鞍山",
    "nameTW":"鞍山"
  },
  {
    "nameEN":"Anshun",
    "areaID":101260301,
    "longitude":105.925,
    "latitude":26.248,
    "nameCN":"安顺",
    "nameTW":"安順"
  },
  {
    "nameEN":"Anyang",
    "areaID":101180201,
    "longitude":114.341,
    "latitude":36.093,
    "nameCN":"安阳",
    "nameTW":"安陽"
  },
  {
    "nameEN":"Aomen",
    "areaID":101330101,
    "longitude":113.544,
    "latitude":22.202,
    "nameCN":"澳门",
    "nameTW":"澳門"
  },
  {
    "nameEN":"Baicheng",
    "areaID":101060601,
    "longitude":122.839,
    "latitude":45.615,
    "nameCN":"白城",
    "nameTW":"白城"
  },
  {
    "nameEN":"Baiyin",
    "areaID":101161301,
    "longitude":104.201,
    "latitude":36.549,
    "nameCN":"白银",
    "nameTW":"白銀"
  },
  {
    "nameEN":"Baoding",
    "areaID":101090201,
    "longitude":115.484,
    "latitude":38.868,
    "nameCN":"保定",
    "nameTW":"保定"
  },
  {
    "nameEN":"Baoji",
    "areaID":101110901,
    "longitude":107.149,
    "latitude":34.381,
    "nameCN":"宝鸡",
    "nameTW":"寶雞"
  },
  {
    "nameEN":"Baotou",
    "areaID":101080201,
    "longitude":109.809,
    "latitude":40.657,
    "nameCN":"包头",
    "nameTW":"包頭"
  },
  {
    "nameEN":"Beijing",
    "areaID":101010100,
    "longitude":116.391,
    "latitude":39.904,
    "nameCN":"北京",
    "nameTW":"北京"
  },
  {
    "nameEN":"Bengbu",
    "areaID":101220201,
    "longitude":117.373,
    "latitude":32.944,
    "nameCN":"蚌埠",
    "nameTW":"蚌埠"
  },
  {
    "nameEN":"Benxi",
    "areaID":101070501,
    "longitude":123.765,
    "latitude":41.302,
    "nameCN":"本溪",
    "nameTW":"本溪"
  },
  {
    "nameEN":"Cangzhou",
    "areaID":101090701,
    "longitude":116.847,
    "latitude":38.274,
    "nameCN":"沧州",
    "nameTW":"滄州"
  },
  {
    "nameEN":"Changchun",
    "areaID":101060101,
    "longitude":125.324,
    "latitude":43.871,
    "nameCN":"长春",
    "nameTW":"長春"
  },
  {
    "nameEN":"Changde",
    "areaID":101250601,
    "longitude":111.692,
    "latitude":29.048,
    "nameCN":"常德",
    "nameTW":"常德"
  },
  {
    "nameEN":"Changsha",
    "areaID":101250101,
    "longitude":112.967,
    "latitude":28.197,
    "nameCN":"长沙",
    "nameTW":"長沙"
  },
  {
    "nameEN":"Changzhi",
    "areaID":101100501,
    "longitude":113.103,
    "latitude":36.187,
    "nameCN":"长治",
    "nameTW":"長治"
  },
  {
    "nameEN":"Changzhou",
    "areaID":101191101,
    "longitude":119.948,
    "latitude":31.766,
    "nameCN":"常州",
    "nameTW":"常州"
  },
  {
    "nameEN":"Chaoyang",
    "areaID":101071201,
    "longitude":116.29,
    "latitude":39.57,
    "nameCN":"朝阳",
    "nameTW":"朝陽"
  },
  {
    "nameEN":"Chaozhou",
    "areaID":101281501,
    "longitude":116.634,
    "latitude":23.667,
    "nameCN":"潮州",
    "nameTW":"潮州"
  },
  {
    "nameEN":"Chengdu",
    "areaID":101270101,
    "longitude":104.071,
    "latitude":30.67,
    "nameCN":"成都",
    "nameTW":"成都"
  },
  {
    "nameEN":"Chenzhou",
    "areaID":101250501,
    "longitude":112.987,
    "latitude":25.783,
    "nameCN":"郴州",
    "nameTW":"郴州"
  },
  {
    "nameEN":"Chifeng",
    "areaID":101080601,
    "longitude":118.952,
    "latitude":42.261,
    "nameCN":"赤峰",
    "nameTW":"赤峰"
  },
  {
    "nameEN":"Chongqing",
    "areaID":101040100,
    "longitude":106.549,
    "latitude":29.581,
    "nameCN":"重庆",
    "nameTW":"重慶"
  },
  {
    "nameEN":"Dalian",
    "areaID":101070201,
    "longitude":121.576,
    "latitude":38.944,
    "nameCN":"大连",
    "nameTW":"大連"
  },
  {
    "nameEN":"Dandong",
    "areaID":101070601,
    "longitude":124.357,
    "latitude":40.11,
    "nameCN":"丹东",
    "nameTW":"丹東"
  },
  {
    "nameEN":"Datong",
    "areaID":101100201,
    "longitude":113.17,
    "latitude":40.06,
    "nameCN":"大同",
    "nameTW":"大同"
  },
  {
    "nameEN":"Dezhou",
    "areaID":101120401,
    "longitude":116.279,
    "latitude":37.446,
    "nameCN":"德州",
    "nameTW":"德州"
  },
  {
    "nameEN":"Dongguan",
    "areaID":101281601,
    "longitude":113.736,
    "latitude":23.047,
    "nameCN":"东莞",
    "nameTW":"東莞"
  },
  {
    "nameEN":"Dongying",
    "areaID":101121201,
    "longitude":118.472,
    "latitude":37.455,
    "nameCN":"东营",
    "nameTW":"東營"
  },
  {
    "nameEN":"Ezhou",
    "areaID":101200301,
    "longitude":114.858,
    "latitude":30.411,
    "nameCN":"鄂州",
    "nameTW":"鄂州"
  },
  {
    "nameEN":"Foshan",
    "areaID":101280800,
    "longitude":113.167,
    "latitude":22.828,
    "nameCN":"佛山",
    "nameTW":"佛山"
  },
  {
    "nameEN":"Fushun",
    "areaID":101070401,
    "longitude":123.906,
    "latitude":41.859,
    "nameCN":"抚顺",
    "nameTW":"撫順"
  },
  {
    "nameEN":"Fuxin",
    "areaID":101070901,
    "longitude":121.647,
    "latitude":42.019,
    "nameCN":"阜新",
    "nameTW":"阜新"
  },
  {
    "nameEN":"Fuzhou",
    "areaID":101230101,
    "longitude":119.303,
    "latitude":26.071,
    "nameCN":"福州",
    "nameTW":"福州"
  },
  {
    "nameEN":"Ganzhou",
    "areaID":101240701,
    "longitude":114.916,
    "latitude":25.832,
    "nameCN":"赣州",
    "nameTW":"贛州"
  },
  {
    "nameEN":"Guangyuan",
    "areaID":101272101,
    "longitude":105.819,
    "latitude":32.446,
    "nameCN":"广元",
    "nameTW":"廣元"
  },
  {
    "nameEN":"Guangzhou",
    "areaID":101280101,
    "longitude":113.265,
    "latitude":23.108,
    "nameCN":"广州",
    "nameTW":"廣州"
  },
  {
    "nameEN":"Guilin",
    "areaID":101300501,
    "longitude":110.277,
    "latitude":25.281,
    "nameCN":"桂林",
    "nameTW":"桂林"
  },
  {
    "nameEN":"Guiyang",
    "areaID":101260101,
    "longitude":106.7,
    "latitude":26.572,
    "nameCN":"贵阳",
    "nameTW":"貴陽"
  },
  {
    "nameEN":"Haicheng",
    "areaID":101070304,
    "longitude":122.724,
    "latitude":40.826,
    "nameCN":"海城",
    "nameTW":"海城"
  },
  {
    "nameEN":"Haikou",
    "areaID":101310101,
    "longitude":110.343,
    "latitude":20.039,
    "nameCN":"海口",
    "nameTW":"海口"
  },
  {
    "nameEN":"Handan",
    "areaID":101091001,
    "longitude":114.495,
    "latitude":36.6,
    "nameCN":"邯郸",
    "nameTW":"邯鄲"
  },
  {
    "nameEN":"Hangzhou",
    "areaID":101210101,
    "longitude":120.165,
    "latitude":30.319,
    "nameCN":"杭州",
    "nameTW":"杭州"
  },
  {
    "nameEN":"Harbin",
    "areaID":101050101,
    "longitude":126.645,
    "latitude":45.758,
    "nameCN":"哈尔滨",
    "nameTW":"哈爾濱"
  },
  {
    "nameEN":"Hebi",
    "areaID":101181201,
    "longitude":114.168,
    "latitude":35.898,
    "nameCN":"鹤壁",
    "nameTW":"鶴壁"
  },
  {
    "nameEN":"Hefei",
    "areaID":101220101,
    "longitude":117.275,
    "latitude":31.861,
    "nameCN":"合肥",
    "nameTW":"合肥"
  },
  {
    "nameEN":"Hegang",
    "areaID":101051201,
    "longitude":130.279,
    "latitude":47.326,
    "nameCN":"鹤岗",
    "nameTW":"鶴崗"
  },
  {
    "nameEN":"Hengyang",
    "areaID":101250401,
    "longitude":112.614,
    "latitude":26.902,
    "nameCN":"衡阳",
    "nameTW":"衡陽"
  },
  {
    "nameEN":"Heze",
    "areaID":101121001,
    "longitude":115.436,
    "latitude":35.24,
    "nameCN":"菏泽",
    "nameTW":"菏澤"
  },
  {
    "nameEN":"Hohhot",
    "areaID":101080101,
    "longitude":111.686,
    "latitude":40.819,
    "nameCN":"呼和浩特",
    "nameTW":"呼和浩特"
  },
  {
    "nameEN":"Hong Kong",
    "areaID":101320101,
    "longitude":114.177,
    "latitude":22.307,
    "nameCN":"香港",
    "nameTW":"香港"
  },
  {
    "nameEN":"Huaibei",
    "areaID":101221201,
    "longitude":116.858,
    "latitude":33.981,
    "nameCN":"淮北",
    "nameTW":"淮北"
  },
  {
    "nameEN":"Huaiyin",
    "areaID":101190906,
    "longitude":119.02,
    "latitude":33.4,
    "nameCN":"淮阴区",
    "nameTW":"淮陰區"
  },
  {
    "nameEN":"Huangshi",
    "areaID":101200601,
    "longitude":115.101,
    "latitude":30.212,
    "nameCN":"黄石",
    "nameTW":"黃石"
  },
  {
    "nameEN":"Huizhou",
    "areaID":101280301,
    "longitude":114.398,
    "latitude":23.096,
    "nameCN":"惠州",
    "nameTW":"惠州"
  },
  {
    "nameEN":"Jiamusi",
    "areaID":101050401,
    "longitude":130.364,
    "latitude":46.796,
    "nameCN":"佳木斯",
    "nameTW":"佳木斯"
  },
  {
    "nameEN":"Jiangmen",
    "areaID":101281101,
    "longitude":113.088,
    "latitude":22.78,
    "nameCN":"江门",
    "nameTW":"江門"
  },
  {
    "nameEN":"Jiaozuo",
    "areaID":101181101,
    "longitude":113.153,
    "latitude":35.242,
    "nameCN":"焦作",
    "nameTW":"焦作"
  },
  {
    "nameEN":"Jiaxing",
    "areaID":101210301,
    "longitude":120.749,
    "latitude":30.758,
    "nameCN":"嘉兴",
    "nameTW":"嘉興"
  },
  {
    "nameEN":"Jilin",
    "areaID":101060201,
    "longitude":126.567,
    "latitude":43.85,
    "nameCN":"吉林",
    "nameTW":"吉林"
  },
  {
    "nameEN":"Jinan",
    "areaID":101120101,
    "longitude":117.009,
    "latitude":36.663,
    "nameCN":"济南",
    "nameTW":"濟南"
  },
  {
    "nameEN":"Jingdezhen",
    "areaID":101240801,
    "longitude":117.203,
    "latitude":29.293,
    "nameCN":"景德镇",
    "nameTW":"景德鎮"
  },
  {
    "nameEN":"Jingzhou",
    "areaID":101090116,
    "longitude":115.044,
    "latitude":38.034,
    "nameCN":"晋州",
    "nameTW":"晉州"
  },
  {
    "nameEN":"Jining",
    "areaID":101120701,
    "longitude":116.58,
    "latitude":35.399,
    "nameCN":"济宁",
    "nameTW":"濟寧"
  },
  {
    "nameEN":"Jinzhou",
    "areaID":101070701,
    "longitude":121.144,
    "latitude":41.116,
    "nameCN":"锦州",
    "nameTW":"錦州"
  },
  {
    "nameEN":"Jinzhou",
    "areaID":101070701,
    "longitude":121.144,
    "latitude":41.116,
    "nameCN":"锦州",
    "nameTW":"錦州"
  },
  {
    "nameEN":"Jiujiang",
    "areaID":101240201,
    "longitude":115.991,
    "latitude":29.722,
    "nameCN":"九江",
    "nameTW":"九江"
  },
  {
    "nameEN":"Jiutai",
    "areaID":101060104,
    "longitude":125.96,
    "latitude":44.184,
    "nameCN":"九台",
    "nameTW":"九台"
  },
  {
    "nameEN":"Jixi",
    "areaID":101051101,
    "longitude":130.97,
    "latitude":45.282,
    "nameCN":"鸡西",
    "nameTW":"雞西"
  },
  {
    "nameEN":"Kaifeng",
    "areaID":101180801,
    "longitude":114.339,
    "latitude":34.787,
    "nameCN":"开封",
    "nameTW":"開封"
  },
  {
    "nameEN":"Kashi",
    "areaID":101130901,
    "longitude":75.987,
    "latitude":39.46,
    "nameCN":"喀什",
    "nameTW":"喀什"
  },
  {
    "nameEN":"Kowloon",
    "areaID":101320102,
    "longitude":101.3,
    "latitude":29,
    "nameCN":"九龙",
    "nameTW":"九龍"
  },
  {
    "nameEN":"Kunming",
    "areaID":101290101,
    "longitude":102.702,
    "latitude":25.051,
    "nameCN":"昆明",
    "nameTW":"昆明"
  },
  {
    "nameEN":"Lanzhou",
    "areaID":101160101,
    "longitude":103.751,
    "latitude":36.068,
    "nameCN":"兰州",
    "nameTW":"蘭州"
  },
  {
    "nameEN":"Laohekou",
    "areaID":101200206,
    "longitude":111.755,
    "latitude":32.406,
    "nameCN":"老河口",
    "nameTW":"老河口"
  },
  {
    "nameEN":"Liaocheng",
    "areaID":101121701,
    "longitude":115.971,
    "latitude":36.447,
    "nameCN":"聊城",
    "nameTW":"聊城"
  },
  {
    "nameEN":"Liaoyang",
    "areaID":101071001,
    "longitude":123.171,
    "latitude":41.266,
    "nameCN":"辽阳",
    "nameTW":"遼陽"
  },
  {
    "nameEN":"Liaoyuan",
    "areaID":101060701,
    "longitude":125.134,
    "latitude":42.903,
    "nameCN":"辽源",
    "nameTW":"遼源"
  },
  {
    "nameEN":"Linfen",
    "areaID":101100701,
    "longitude":111.449,
    "latitude":36.116,
    "nameCN":"临汾",
    "nameTW":"臨汾"
  },
  {
    "nameEN":"Linyi",
    "areaID":101120901,
    "longitude":118.336,
    "latitude":35.057,
    "nameCN":"临沂",
    "nameTW":"臨沂"
  },
  {
    "nameEN":"Liupanshui-Liuzhi",
    "areaID":101260802,
    "longitude":105.27,
    "latitude":26.14,
    "nameCN":"六枝",
    "nameTW":"六枝"
  },
  {
    "nameEN":"Liupanshui-Panxian",
    "areaID":101260804,
    "longitude":104.37,
    "latitude":25.47,
    "nameCN":"盘县",
    "nameTW":"盤縣"
  },
  {
    "nameEN":"Liupanshui-Shuicheng",
    "areaID":101260801,
    "longitude":104.52,
    "latitude":26.35,
    "nameCN":"水城",
    "nameTW":"水城"
  },
  {
    "nameEN":"Liuzhou",
    "areaID":101300301,
    "longitude":109.373,
    "latitude":24.315,
    "nameCN":"柳州",
    "nameTW":"柳州"
  },
  {
    "nameEN":"Luan",
    "areaID":101221501,
    "longitude":116.483,
    "latitude":31.741,
    "nameCN":"六安",
    "nameTW":"六安"
  },
  {
    "nameEN":"Luoyang",
    "areaID":101180901,
    "longitude":112.361,
    "latitude":34.671,
    "nameCN":"洛阳",
    "nameTW":"洛陽"
  },
  {
    "nameEN":"Luzhou",
    "areaID":101271001,
    "longitude":105.444,
    "latitude":28.889,
    "nameCN":"泸州",
    "nameTW":"瀘州"
  },
  {
    "nameEN":"Maanshan",
    "areaID":101220501,
    "longitude":118.356,
    "latitude":31.709,
    "nameCN":"马鞍山",
    "nameTW":"馬鞍山"
  },
  {
    "nameEN":"Maoming",
    "areaID":101282001,
    "longitude":110.891,
    "latitude":21.671,
    "nameCN":"茂名",
    "nameTW":"茂名"
  },
  {
    "nameEN":"Mentougou",
    "areaID":101011400,
    "longitude":116.07,
    "latitude":39.55,
    "nameCN":"门头沟",
    "nameTW":"門頭溝"
  },
  {
    "nameEN":"Mianyang",
    "areaID":101270401,
    "longitude":104.727,
    "latitude":31.475,
    "nameCN":"绵阳",
    "nameTW":"綿陽"
  },
  {
    "nameEN":"Mudanjiang",
    "areaID":101050301,
    "longitude":129.611,
    "latitude":44.579,
    "nameCN":"牡丹江",
    "nameTW":"牡丹江"
  },
  {
    "nameEN":"Nanchang",
    "areaID":101240101,
    "longitude":115.889,
    "latitude":28.671,
    "nameCN":"南昌",
    "nameTW":"南昌"
  },
  {
    "nameEN":"Nanchong",
    "areaID":101270501,
    "longitude":106.083,
    "latitude":30.797,
    "nameCN":"南充",
    "nameTW":"南充"
  },
  {
    "nameEN":"Nanjing",
    "areaID":101190101,
    "longitude":118.769,
    "latitude":32.048,
    "nameCN":"南京",
    "nameTW":"南京"
  },
  {
    "nameEN":"Nanning",
    "areaID":101300101,
    "longitude":108.295,
    "latitude":22.838,
    "nameCN":"南宁",
    "nameTW":"南寧"
  },
  {
    "nameEN":"Nanping",
    "areaID":101230901,
    "longitude":118.169,
    "latitude":26.637,
    "nameCN":"南平",
    "nameTW":"南平"
  },
  {
    "nameEN":"Nantong",
    "areaID":101190501,
    "longitude":120.84,
    "latitude":32.016,
    "nameCN":"南通",
    "nameTW":"南通"
  },
  {
    "nameEN":"Nanyang",
    "areaID":101180701,
    "longitude":112.527,
    "latitude":32.996,
    "nameCN":"南阳",
    "nameTW":"南陽"
  },
  {
    "nameEN":"Neijiang",
    "areaID":101271201,
    "longitude":105.056,
    "latitude":29.584,
    "nameCN":"内江",
    "nameTW":"內江"
  },
  {
    "nameEN":"Ningbo",
    "areaID":101210401,
    "longitude":121.542,
    "latitude":29.872,
    "nameCN":"宁波",
    "nameTW":"寧波"
  },
  {
    "nameEN":"Panjin",
    "areaID":101071301,
    "longitude":122.277,
    "latitude":41.153,
    "nameCN":"盘锦",
    "nameTW":"盤錦"
  },
  {
    "nameEN":"Panzhihua",
    "areaID":101270201,
    "longitude":101.733,
    "latitude":26.55,
    "nameCN":"攀枝花",
    "nameTW":"攀枝花"
  },
  {
    "nameEN":"Pingdingshan",
    "areaID":101180501,
    "longitude":113.293,
    "latitude":33.74,
    "nameCN":"平顶山",
    "nameTW":"平頂山"
  },
  {
    "nameEN":"Puyang",
    "areaID":101181301,
    "longitude":114.995,
    "latitude":35.702,
    "nameCN":"濮阳",
    "nameTW":"濮陽"
  },
  {
    "nameEN":"Qingdao",
    "areaID":101120201,
    "longitude":120.343,
    "latitude":36.088,
    "nameCN":"青岛",
    "nameTW":"青島"
  },
  {
    "nameEN":"Qinhuangdao",
    "areaID":101091101,
    "longitude":119.601,
    "latitude":39.932,
    "nameCN":"秦皇岛",
    "nameTW":"秦皇島"
  },
  {
    "nameEN":"Qiqihar",
    "areaID":101050201,
    "longitude":123.964,
    "latitude":47.343,
    "nameCN":"齐齐哈尔",
    "nameTW":"齊齊哈爾"
  },
  {
    "nameEN":"Qitaihe",
    "areaID":101051002,
    "longitude":130.855,
    "latitude":45.955,
    "nameCN":"七台河",
    "nameTW":"七台河"
  },
  {
    "nameEN":"Quanzhou",
    "areaID":101230501,
    "longitude":118.583,
    "latitude":24.914,
    "nameCN":"泉州",
    "nameTW":"泉州"
  },
  {
    "nameEN":"Rizhao",
    "areaID":101121501,
    "longitude":119.447,
    "latitude":35.419,
    "nameCN":"日照",
    "nameTW":"日照"
  },
  {
    "nameEN":"Sanming",
    "areaID":101230801,
    "longitude":117.601,
    "latitude":26.236,
    "nameCN":"三明",
    "nameTW":"三明"
  },
  {
    "nameEN":"Shanghai",
    "areaID":101020100,
    "longitude":121.445,
    "latitude":31.213,
    "nameCN":"上海",
    "nameTW":"上海"
  },
  {
    "nameEN":"Shangqiu",
    "areaID":101181001,
    "longitude":115.635,
    "latitude":34.434,
    "nameCN":"商丘",
    "nameTW":"商丘"
  },
  {
    "nameEN":"Shantou",
    "areaID":101280501,
    "longitude":116.676,
    "latitude":23.355,
    "nameCN":"汕头",
    "nameTW":"汕頭"
  },
  {
    "nameEN":"Shaoguan",
    "areaID":101280201,
    "longitude":113.589,
    "latitude":24.805,
    "nameCN":"韶关",
    "nameTW":"韶關"
  },
  {
    "nameEN":"Shaoxing",
    "areaID":101210501,
    "longitude":120.579,
    "latitude":29.992,
    "nameCN":"绍兴",
    "nameTW":"紹興"
  },
  {
    "nameEN":"Shaoyang",
    "areaID":101250901,
    "longitude":111.255,
    "latitude":26.994,
    "nameCN":"邵阳",
    "nameTW":"邵陽"
  },
  {
    "nameEN":"Shashi",
    "areaID":101201406,
    "longitude":112.31,
    "latitude":30.287,
    "nameCN":"沙市",
    "nameTW":"沙市"
  },
  {
    "nameEN":"Shenyang",
    "areaID":101070101,
    "longitude":123.418,
    "latitude":41.799,
    "nameCN":"沈阳",
    "nameTW":"沈陽"
  },
  {
    "nameEN":"Shenzhen",
    "areaID":101280601,
    "longitude":114.109,
    "latitude":22.544,
    "nameCN":"深圳",
    "nameTW":"深圳"
  },
  {
    "nameEN":"Shihezi",
    "areaID":101130301,
    "longitude":86.037,
    "latitude":44.299,
    "nameCN":"石河子",
    "nameTW":"石河子"
  },
  {
    "nameEN":"Shijiazhuang",
    "areaID":101090101,
    "longitude":114.498,
    "latitude":38.042,
    "nameCN":"石家庄",
    "nameTW":"石家莊"
  },
  {
    "nameEN":"Shiyan",
    "areaID":101201101,
    "longitude":110.772,
    "latitude":32.619,
    "nameCN":"十堰",
    "nameTW":"十堰"
  },
  {
    "nameEN":"Shuangyashan",
    "areaID":101051301,
    "longitude":131.147,
    "latitude":46.629,
    "nameCN":"双鸭山",
    "nameTW":"雙鴨山"
  },
  {
    "nameEN":"Siping",
    "areaID":101060401,
    "longitude":124.365,
    "latitude":43.161,
    "nameCN":"四平",
    "nameTW":"四平"
  },
  {
    "nameEN":"Suihua",
    "areaID":101050501,
    "longitude":126.991,
    "latitude":46.632,
    "nameCN":"绥化",
    "nameTW":"綏化"
  },
  {
    "nameEN":"Suizhou",
    "areaID":101201301,
    "longitude":113.363,
    "latitude":31.709,
    "nameCN":"随州",
    "nameTW":"隨州"
  },
  {
    "nameEN":"Suzhou",
    "areaID":101190401,
    "longitude":120.612,
    "latitude":31.309,
    "nameCN":"苏州",
    "nameTW":"蘇州"
  },
  {
    "nameEN":"Suzhou",
    "areaID":101220701,
    "longitude":117.002,
    "latitude":33.629,
    "nameCN":"宿州",
    "nameTW":"宿州"
  },
  {
    "nameEN":"Taian",
    "areaID":101120801,
    "longitude":117.128,
    "latitude":36.181,
    "nameCN":"泰安",
    "nameTW":"泰安"
  },
  {
    "nameEN":"Taiyuan",
    "areaID":101100101,
    "longitude":112.551,
    "latitude":37.893,
    "nameCN":"太原",
    "nameTW":"太原"
  },
  {
    "nameEN":"Tanggu",
    "areaID":101031100,
    "longitude":117.43,
    "latitude":39,
    "nameCN":"塘沽",
    "nameTW":"塘沽"
  },
  {
    "nameEN":"Tangshan",
    "areaID":101090501,
    "longitude":118.18,
    "latitude":39.616,
    "nameCN":"唐山",
    "nameTW":"唐山"
  },
  {
    "nameEN":"Tianjin",
    "areaID":101030100,
    "longitude":117.246,
    "latitude":39.117,
    "nameCN":"天津",
    "nameTW":"天津"
  },
  {
    "nameEN":"Tianmen",
    "areaID":101201501,
    "longitude":113.029,
    "latitude":30.642,
    "nameCN":"天门",
    "nameTW":"天門"
  },
  {
    "nameEN":"Tieling",
    "areaID":101071101,
    "longitude":123.831,
    "latitude":42.291,
    "nameCN":"铁岭",
    "nameTW":"鐵嶺"
  },
  {
    "nameEN":"Tongchuan",
    "areaID":101111001,
    "longitude":109.068,
    "latitude":35.073,
    "nameCN":"铜川",
    "nameTW":"銅川"
  },
  {
    "nameEN":"Tongliao",
    "areaID":101080501,
    "longitude":122.34,
    "latitude":43.656,
    "nameCN":"通辽",
    "nameTW":"通遼"
  },
  {
    "nameEN":"Tongling",
    "areaID":101221301,
    "longitude":117.781,
    "latitude":30.948,
    "nameCN":"铜陵",
    "nameTW":"銅陵"
  },
  {
    "nameEN":"Urumqi",
    "areaID":101130101,
    "longitude":87.585,
    "latitude":43.781,
    "nameCN":"乌鲁木齐",
    "nameTW":"烏魯木齊"
  },
  {
    "nameEN":"Wafangdian",
    "areaID":101070202,
    "longitude":121.759,
    "latitude":39.737,
    "nameCN":"瓦房店",
    "nameTW":"瓦房店"
  },
  {
    "nameEN":"Weifang",
    "areaID":101120601,
    "longitude":119.094,
    "latitude":36.707,
    "nameCN":"潍坊",
    "nameTW":"濰坊"
  },
  {
    "nameEN":"Wenzhou",
    "areaID":101210701,
    "longitude":120.648,
    "latitude":28.003,
    "nameCN":"温州",
    "nameTW":"溫州"
  },
  {
    "nameEN":"Wuhan",
    "areaID":101200101,
    "longitude":114.279,
    "latitude":30.573,
    "nameCN":"武汉",
    "nameTW":"武漢"
  },
  {
    "nameEN":"Wuhu",
    "areaID":101220301,
    "longitude":118.361,
    "latitude":31.341,
    "nameCN":"芜湖",
    "nameTW":"蕪湖"
  },
  {
    "nameEN":"Wuxi",
    "areaID":101190201,
    "longitude":120.288,
    "latitude":31.574,
    "nameCN":"无锡",
    "nameTW":"無錫"
  },
  {
    "nameEN":"Wuxue",
    "areaID":101200509,
    "longitude":115.593,
    "latitude":30.017,
    "nameCN":"武穴",
    "nameTW":"武穴"
  },
  {
    "nameEN":"Wuzhou",
    "areaID":101300601,
    "longitude":111.315,
    "latitude":23.477,
    "nameCN":"梧州",
    "nameTW":"梧州"
  },
  {
    "nameEN":"Xiamen",
    "areaID":101230201,
    "longitude":118.07,
    "latitude":24.445,
    "nameCN":"厦门",
    "nameTW":"廈門"
  },
  {
    "nameEN":"Xian",
    "areaID":101110101,
    "longitude":108.969,
    "latitude":34.285,
    "nameCN":"西安",
    "nameTW":"西安"
  },
  {
    "nameEN":"Xiangfan",
    "areaID":101200201,
    "longitude":112.096,
    "latitude":32.082,
    "nameCN":"襄阳",
    "nameTW":"襄陽"
  },
  {
    "nameEN":"Xiangtan",
    "areaID":101250201,
    "longitude":112.908,
    "latitude":27.867,
    "nameCN":"湘潭",
    "nameTW":"湘潭"
  },
  {
    "nameEN":"Xiantao",
    "areaID":101201601,
    "longitude":113.451,
    "latitude":30.375,
    "nameCN":"仙桃",
    "nameTW":"仙桃"
  },
  {
    "nameEN":"Xianyang",
    "areaID":101110200,
    "longitude":108.591,
    "latitude":34.328,
    "nameCN":"咸阳",
    "nameTW":"咸陽"
  },
  {
    "nameEN":"Xingtai",
    "areaID":101090901,
    "longitude":114.771,
    "latitude":37.134,
    "nameCN":"邢台",
    "nameTW":"邢臺"
  },
  {
    "nameEN":"Xining",
    "areaID":101150101,
    "longitude":101.778,
    "latitude":36.621,
    "nameCN":"西宁",
    "nameTW":"西寧"
  },
  {
    "nameEN":"Xintai",
    "areaID":101120802,
    "longitude":117.44,
    "latitude":35.54,
    "nameCN":"新泰",
    "nameTW":"新泰"
  },
  {
    "nameEN":"Xinxiang",
    "areaID":101180301,
    "longitude":113.863,
    "latitude":35.309,
    "nameCN":"新乡",
    "nameTW":"新鄉"
  },
  {
    "nameEN":"Xinyang",
    "areaID":101180601,
    "longitude":114.06,
    "latitude":32.125,
    "nameCN":"信阳",
    "nameTW":"信陽"
  },
  {
    "nameEN":"Xuanhua",
    "areaID":101090302,
    "longitude":115.02,
    "latitude":40.34,
    "nameCN":"宣化",
    "nameTW":"宣化"
  },
  {
    "nameEN":"Xuchang",
    "areaID":101180401,
    "longitude":113.805,
    "latitude":34.022,
    "nameCN":"许昌",
    "nameTW":"許昌"
  },
  {
    "nameEN":"Xuzhou",
    "areaID":101190801,
    "longitude":117.188,
    "latitude":34.263,
    "nameCN":"徐州",
    "nameTW":"徐州"
  },
  {
    "nameEN":"Yancheng",
    "areaID":101190701,
    "longitude":120.13,
    "latitude":33.387,
    "nameCN":"盐城",
    "nameTW":"鹽城"
  },
  {
    "nameEN":"Yangjiang",
    "areaID":101281801,
    "longitude":111.923,
    "latitude":21.846,
    "nameCN":"阳江",
    "nameTW":"陽江"
  },
  {
    "nameEN":"Yangquan",
    "areaID":101100301,
    "longitude":113.509,
    "latitude":37.927,
    "nameCN":"阳泉",
    "nameTW":"陽泉"
  },
  {
    "nameEN":"Yangzhou",
    "areaID":101190601,
    "longitude":119.427,
    "latitude":32.386,
    "nameCN":"扬州",
    "nameTW":"揚州"
  },
  {
    "nameEN":"Yanji",
    "areaID":101060301,
    "longitude":129.512,
    "latitude":42.907,
    "nameCN":"延吉",
    "nameTW":"延吉"
  },
  {
    "nameEN":"Yantai",
    "areaID":101120501,
    "longitude":121.36,
    "latitude":37.543,
    "nameCN":"烟台",
    "nameTW":"煙台"
  },
  {
    "nameEN":"Yibin",
    "areaID":101271101,
    "longitude":104.622,
    "latitude":28.765,
    "nameCN":"宜宾",
    "nameTW":"宜賓"
  },
  {
    "nameEN":"Yichang",
    "areaID":101200901,
    "longitude":111.281,
    "latitude":30.708,
    "nameCN":"宜昌",
    "nameTW":"宜昌"
  },
  {
    "nameEN":"Yinchuan",
    "areaID":101170101,
    "longitude":106.263,
    "latitude":38.468,
    "nameCN":"银川",
    "nameTW":"銀川"
  },
  {
    "nameEN":"Yingcheng",
    "areaID":101200405,
    "longitude":113.547,
    "latitude":30.933,
    "nameCN":"应城",
    "nameTW":"應城"
  },
  {
    "nameEN":"Yingkou",
    "areaID":101070801,
    "longitude":122.278,
    "latitude":40.686,
    "nameCN":"营口",
    "nameTW":"營口"
  },
  {
    "nameEN":"Yining",
    "areaID":101131001,
    "longitude":81.303,
    "latitude":43.91,
    "nameCN":"伊宁",
    "nameTW":"伊寧"
  },
  {
    "nameEN":"Yiyang",
    "areaID":101250700,
    "longitude":112.23,
    "latitude":28.34,
    "nameCN":"益阳",
    "nameTW":"益陽"
  },
  {
    "nameEN":"Yizheng",
    "areaID":101190603,
    "longitude":119.186,
    "latitude":32.417,
    "nameCN":"仪征",
    "nameTW":"儀征"
  },
  {
    "nameEN":"Yuci",
    "areaID":101100402,
    "longitude":112.84,
    "latitude":37.636,
    "nameCN":"榆次",
    "nameTW":"榆次"
  },
  {
    "nameEN":"Yueyang",
    "areaID":101251001,
    "longitude":113.095,
    "latitude":29.378,
    "nameCN":"岳阳",
    "nameTW":"岳陽"
  },
  {
    "nameEN":"Yuncheng",
    "areaID":101100801,
    "longitude":110.954,
    "latitude":35.106,
    "nameCN":"运城",
    "nameTW":"運城"
  },
  {
    "nameEN":"Zaoyang",
    "areaID":101200208,
    "longitude":112.787,
    "latitude":32.032,
    "nameCN":"枣阳",
    "nameTW":"棗陽"
  },
  {
    "nameEN":"Zaozhuang",
    "areaID":101121401,
    "longitude":117.552,
    "latitude":34.867,
    "nameCN":"枣庄",
    "nameTW":"棗莊"
  },
  {
    "nameEN":"Zhangjiakou",
    "areaID":101090301,
    "longitude":114.939,
    "latitude":40.764,
    "nameCN":"张家口",
    "nameTW":"張家口"
  },
  {
    "nameEN":"Zhangzhou",
    "areaID":101230601,
    "longitude":117.655,
    "latitude":24.517,
    "nameCN":"漳州",
    "nameTW":"漳州"
  },
  {
    "nameEN":"Zhanjiang",
    "areaID":101281001,
    "longitude":110.384,
    "latitude":21.19,
    "nameCN":"湛江",
    "nameTW":"湛江"
  },
  {
    "nameEN":"Zhengzhou",
    "areaID":101180101,
    "longitude":113.641,
    "latitude":34.758,
    "nameCN":"郑州",
    "nameTW":"鄭州"
  },
  {
    "nameEN":"Zhenjiang",
    "areaID":101190301,
    "longitude":119.434,
    "latitude":32.202,
    "nameCN":"镇江",
    "nameTW":"鎮江"
  },
  {
    "nameEN":"Zhongshan",
    "areaID":101281701,
    "longitude":113.359,
    "latitude":22.528,
    "nameCN":"中山",
    "nameTW":"中山"
  },
  {
    "nameEN":"Zhuhai",
    "areaID":101280701,
    "longitude":113.565,
    "latitude":22.248,
    "nameCN":"珠海",
    "nameTW":"珠海"
  },
  {
    "nameEN":"Zhuzhou",
    "areaID":101250301,
    "longitude":113.109,
    "latitude":27.863,
    "nameCN":"株洲",
    "nameTW":"株洲"
  },
  {
    "nameEN":"Zigong",
    "areaID":101270301,
    "longitude":104.763,
    "latitude":29.357,
    "nameCN":"自贡",
    "nameTW":"自貢"
  },
  {
    "nameEN":"Zunyi",
    "areaID":101260201,
    "longitude":106.907,
    "latitude":27.698,
    "nameCN":"遵义",
    "nameTW":"遵義"
  }
]}